{
  "type": "FeatureCollection",
  "features": [
    {
      "type": "Feature",
      "properties": {
        "norad_id": 33376,
        "name": "GALAXY 19 (G-19)",
        "group": "intelsat",
        "lat": 0.015281003559102332,
        "lon": 138.72978284564428,
        "alt_km": 35794.6682775231,
        "timestamp": "2025-12-03T10:52:57.117655+00:00",
        "meta_object_name": "GALAXY 19 (G-19)",
        "meta_object_id": "2008-045A",
        "meta_epoch": "2025-12-03T04:00:38.641824",
        "meta_mean_motion": 1.00270857,
        "meta_eccentricity": 0.0003438,
        "meta_inclination": 0.0173,
        "meta_ra_of_asc_node": 17.5292,
        "meta_arg_of_pericenter": 246.195,
        "meta_mean_anomaly": 131.7053,
        "meta_ephemeris_type": 0,
        "meta_classification_type": "U",
        "meta_norad_cat_id": 33376,
        "meta_element_set_no": 999,
        "meta_rev_at_epoch": 6293,
        "meta_bstar": 0,
        "meta_mean_motion_dot": -1.2e-06,
        "meta_mean_motion_ddot": 0,
        "tle_line1": "1 33376U 08045A   25337.16711391 -.00000120  00000+0  00000+0 0  9990",
        "tle_line2": "2 33376   0.0173  17.5292 0003438 246.1950 131.7053  1.00270857 62936"
      },
      "geometry": {
        "type": "Point",
        "coordinates": [
          138.72978284564428,
          0.015281003559102332
        ]
      }
    },
    {
      "type": "Feature",
      "properties": {
        "norad_id": 35493,
        "name": "FM-5",
        "group": "intelsat",
        "lat": -0.024932960359884185,
        "lon": 149.61590454569054,
        "alt_km": 35781.67299157038,
        "timestamp": "2025-12-03T10:52:57.117667+00:00",
        "meta_object_name": "FM-5",
        "meta_object_id": "2009-034A",
        "meta_epoch": "2025-12-03T03:04:21.874080",
        "meta_mean_motion": 1.00270104,
        "meta_eccentricity": 0.0001197,
        "meta_inclination": 0.0234,
        "meta_ra_of_asc_node": 283.6233,
        "meta_arg_of_pericenter": 238.1283,
        "meta_mean_anomaly": 230.4272,
        "meta_ephemeris_type": 0,
        "meta_classification_type": "U",
        "meta_norad_cat_id": 35493,
        "meta_element_set_no": 999,
        "meta_rev_at_epoch": 4467,
        "meta_bstar": 0,
        "meta_mean_motion_dot": -1.81e-06,
        "meta_mean_motion_ddot": 0,
        "tle_line1": "1 35493U 09034A   25337.12803095 -.00000181  00000+0  00000+0 0  9997",
        "tle_line2": "2 35493   0.0234 283.6233 0001197 238.1283 230.4272  1.00270104 44673"
      },
      "geometry": {
        "type": "Point",
        "coordinates": [
          149.61590454569054,
          -0.024932960359884185
        ]
      }
    },
    {
      "type": "Feature",
      "properties": {
        "norad_id": 36097,
        "name": "INTELSAT 14 (IS-14)",
        "group": "intelsat",
        "lat": -0.03653889320509469,
        "lon": -169.26657194986979,
        "alt_km": 35781.127021444496,
        "timestamp": "2025-12-03T10:52:57.117679+00:00",
        "meta_object_name": "INTELSAT 14 (IS-14)",
        "meta_object_id": "2009-064A",
        "meta_epoch": "2025-12-03T03:16:05.749824",
        "meta_mean_motion": 1.00271475,
        "meta_eccentricity": 0.0002641,
        "meta_inclination": 0.0165,
        "meta_ra_of_asc_node": 302.3379,
        "meta_arg_of_pericenter": 311.4506,
        "meta_mean_anomaly": 182.4713,
        "meta_ephemeris_type": 0,
        "meta_classification_type": "U",
        "meta_norad_cat_id": 36097,
        "meta_element_set_no": 999,
        "meta_rev_at_epoch": 5863,
        "meta_bstar": 0,
        "meta_mean_motion_dot": -2.54e-06,
        "meta_mean_motion_ddot": 0,
        "tle_line1": "1 36097U 09064A   25337.13617766 -.00000254  00000+0  00000+0 0  9991",
        "tle_line2": "2 36097   0.0165 302.3379 0002641 311.4506 182.4713  1.00271475 58634"
      },
      "geometry": {
        "type": "Point",
        "coordinates": [
          -169.26657194986979,
          -0.03653889320509469
        ]
      }
    },
    {
      "type": "Feature",
      "properties": {
        "norad_id": 36106,
        "name": "INTELSAT 15 (IS-15)",
        "group": "intelsat",
        "lat": 0.0001052970158814131,
        "lon": -39.05672182289143,
        "alt_km": 35782.664180501786,
        "timestamp": "2025-12-03T10:52:57.117701+00:00",
        "meta_object_name": "INTELSAT 15 (IS-15)",
        "meta_object_id": "2009-067A",
        "meta_epoch": "2025-12-03T00:27:42.533856",
        "meta_mean_motion": 1.00270428,
        "meta_eccentricity": 0.0002422,
        "meta_inclination": 0.0135,
        "meta_ra_of_asc_node": 323.8729,
        "meta_arg_of_pericenter": 288.97,
        "meta_mean_anomaly": 271.3635,
        "meta_ephemeris_type": 0,
        "meta_classification_type": "U",
        "meta_norad_cat_id": 36106,
        "meta_element_set_no": 999,
        "meta_rev_at_epoch": 3926,
        "meta_bstar": 0,
        "meta_mean_motion_dot": -1.66e-06,
        "meta_mean_motion_ddot": 0,
        "tle_line1": "1 36106U 09067A   25337.01924229 -.00000166  00000+0  00000+0 0  9999",
        "tle_line2": "2 36106   0.0135 323.8729 0002422 288.9700 271.3635  1.00270428 39266"
      },
      "geometry": {
        "type": "Point",
        "coordinates": [
          -39.05672182289143,
          0.0001052970158814131
        ]
      }
    },
    {
      "type": "Feature",
      "properties": {
        "norad_id": 36131,
        "name": "DIRECTV 12",
        "group": "intelsat",
        "lat": 1.403331989028074e-05,
        "lon": 133.03958417563447,
        "alt_km": 35786.162419644614,
        "timestamp": "2025-12-03T10:52:57.117725+00:00",
        "meta_object_name": "DIRECTV 12",
        "meta_object_id": "2009-075A",
        "meta_epoch": "2025-12-02T23:34:10.166304",
        "meta_mean_motion": 1.00270477,
        "meta_eccentricity": 8.8e-06,
        "meta_inclination": 0.0129,
        "meta_ra_of_asc_node": 85.1982,
        "meta_arg_of_pericenter": 85.0953,
        "meta_mean_anomaly": 152.6141,
        "meta_ephemeris_type": 0,
        "meta_classification_type": "U",
        "meta_norad_cat_id": 36131,
        "meta_element_set_no": 999,
        "meta_rev_at_epoch": 4458,
        "meta_bstar": 0,
        "meta_mean_motion_dot": -8.4e-07,
        "meta_mean_motion_ddot": 0,
        "tle_line1": "1 36131U 09075A   25336.98206211 -.00000084  00000+0  00000+0 0  9994",
        "tle_line2": "2 36131   0.0129  85.1982 0000088  85.0953 152.6141  1.00270477 44586"
      },
      "geometry": {
        "type": "Point",
        "coordinates": [
          133.03958417563447,
          1.403331989028074e-05
        ]
      }
    },
    {
      "type": "Feature",
      "properties": {
        "norad_id": 36397,
        "name": "INTELSAT 16 (IS-16)",
        "group": "intelsat",
        "lat": -0.016796218811366444,
        "lon": 159.52842012673335,
        "alt_km": 35787.52292557675,
        "timestamp": "2025-12-03T10:52:57.117738+00:00",
        "meta_object_name": "INTELSAT 16 (IS-16)",
        "meta_object_id": "2010-006A",
        "meta_epoch": "2025-12-03T03:07:14.100384",
        "meta_mean_motion": 1.00270065,
        "meta_eccentricity": 0.0002368,
        "meta_inclination": 0.0124,
        "meta_ra_of_asc_node": 310.7865,
        "meta_arg_of_pericenter": 304.1035,
        "meta_mean_anomaly": 147.9452,
        "meta_ephemeris_type": 0,
        "meta_classification_type": "U",
        "meta_norad_cat_id": 36397,
        "meta_element_set_no": 999,
        "meta_rev_at_epoch": 5768,
        "meta_bstar": 0,
        "meta_mean_motion_dot": -2.25e-06,
        "meta_mean_motion_ddot": 0,
        "tle_line1": "1 36397U 10006A   25337.13002431 -.00000225  00000+0  00000+0 0  9997",
        "tle_line2": "2 36397   0.0124 310.7865 0002368 304.1035 147.9452  1.00270065 57681"
      },
      "geometry": {
        "type": "Point",
        "coordinates": [
          159.52842012673335,
          -0.016796218811366444
        ]
      }
    },
    {
      "type": "Feature",
      "properties": {
        "norad_id": 37185,
        "name": "XM-5",
        "group": "intelsat",
        "lat": -0.02476622589023991,
        "lon": 120.56256656999848,
        "alt_km": 35780.77316093406,
        "timestamp": "2025-12-03T10:52:57.117750+00:00",
        "meta_object_name": "XM-5",
        "meta_object_id": "2010-053A",
        "meta_epoch": "2025-12-02T10:37:38.767584",
        "meta_mean_motion": 1.00270481,
        "meta_eccentricity": 0.0001582,
        "meta_inclination": 0.0649,
        "meta_ra_of_asc_node": 272.7549,
        "meta_arg_of_pericenter": 239.5567,
        "meta_mean_anomaly": 323.4678,
        "meta_ephemeris_type": 0,
        "meta_classification_type": "U",
        "meta_norad_cat_id": 37185,
        "meta_element_set_no": 999,
        "meta_rev_at_epoch": 5551,
        "meta_bstar": 0,
        "meta_mean_motion_dot": -2e-08,
        "meta_mean_motion_ddot": 0,
        "tle_line1": "1 37185U 10053A   25336.44280981 -.00000002  00000+0  00000+0 0  9999",
        "tle_line2": "2 37185   0.0649 272.7549 0001582 239.5567 323.4678  1.00270481 55516"
      },
      "geometry": {
        "type": "Point",
        "coordinates": [
          120.56256656999848,
          -0.02476622589023991
        ]
      }
    }
  ]
}